[{"OBJECT_NAME":"STARLINK-36179","OBJECT_ID":"2025-299T","EPOCH":"2026-03-09T14:33:51.848640","MEAN_MOTION":15.36441167,"ECCENTRICITY":0.00016869,"INCLINATION":43.0006,"RA_OF_ASC_NODE":169.4613,"ARG_OF_PERICENTER":271.6543,"MEAN_ANOMALY":88.4119,"EPHEMERIS_TYPE":0,"CLASSIFICATION_TYPE":"U","NORAD_CAT_ID":67119,"ELEMENT_SET_NO":999,"REV_AT_EPOCH":1310,"BSTAR":-0.011187519,"MEAN_MOTION_DOT":-0.00386697,"MEAN_MOTION_DDOT":0},{"OBJECT_NAME":"ZK-1A R\/B","OBJECT_ID":"2025-108G","EPOCH":"2026-03-09T22:10:12.431136","MEAN_MOTION":15.50420851,"ECCENTRICITY":0.00781774,"INCLINATION":97.4327,"RA_OF_ASC_NODE":155.8294,"ARG_OF_PERICENTER":43.1375,"MEAN_ANOMALY":317.5966,"EPHEMERIS_TYPE":0,"CLASSIFICATION_TYPE":"U","NORAD_CAT_ID":64093,"ELEMENT_SET_NO":999,"REV_AT_EPOCH":4506,"BSTAR":0.00053431437,"MEAN_MOTION_DOT":0.00034492,"MEAN_MOTION_DDOT":0}]
